[{"OBJECT_NAME":"CSTP 1.2 (STC 1.2)","OBJECT_ID":"2023-091W","EPOCH":"2026-03-09T23:12:27.821952","MEAN_MOTION":15.2718076,"ECCENTRICITY":0.00204388,"INCLINATION":97.5258,"RA_OF_ASC_NODE":134.3262,"ARG_OF_PERICENTER":84.9592,"MEAN_ANOMALY":275.3979,"EPHEMERIS_TYPE":0,"CLASSIFICATION_TYPE":"U","NORAD_CAT_ID":57186,"ELEMENT_SET_NO":999,"REV_AT_EPOCH":14930,"BSTAR":0.00043035718,"MEAN_MOTION_DOT":0.00011466,"MEAN_MOTION_DDOT":0},{"OBJECT_NAME":"STARLINK-31146","OBJECT_ID":"2024-011E","EPOCH":"2026-03-09T05:57:15.504768","MEAN_MOTION":15.30192179,"ECCENTRICITY":0.00010239,"INCLINATION":53.162,"RA_OF_ASC_NODE":15.6589,"ARG_OF_PERICENTER":93.7105,"MEAN_ANOMALY":266.4012,"EPHEMERIS_TYPE":0,"CLASSIFICATION_TYPE":"U","NORAD_CAT_ID":58769,"ELEMENT_SET_NO":999,"REV_AT_EPOCH":12020,"BSTAR":-1.442369e-6,"MEAN_MOTION_DOT":-4.02e-6,"MEAN_MOTION_DDOT":0}]
